OBJECT B                
1 51825U 22019B   25288.94795468  .00037364  00000+0  73861-3 0  9992
2 51825  97.3747   7.2940 0007560 305.2877  54.7665 15.47003403201690
